NORAD_CAT_ID,OBJECT_NAME,OBJECT_TYPE,EPOCH,MEAN_MOTION,ECCENTRICITY,INCLINATION,RA_OF_ASC_NODE,ARG_OF_PERICENTER,MEAN_ANOMALY,BSTAR,MEAN_MOTION_DOT,MEAN_MOTION_DDOT,TLE_LINE0,TLE_LINE1,TLE_LINE2,SEMIMAJOR_AXIS,PERIOD,APOGEE,PERIGEE,DECAYED
52630.0,STARLINK-3989,PAYLOAD,2023-03-30 01:12:38,15.08841395,0.0001551,53.2176,57.8485,100.1262,259.9905,0.00010667,1.41e-05,0.0,0 STARLINK-3989,1 52630U 22052AJ  23089.05044476  .00001410  00000-0  10667-3 0  9998,2 52630  53.2176  57.8485 0001551 100.1262 259.9905 15.08841395 48985,6917.876,95.437,540.814,538.668,0.0
52630.0,STARLINK-3989,PAYLOAD,2023-03-30 07:34:10,15.0884538,0.0001633,53.2181,56.6556,115.4263,244.6898,0.00013864,1.919e-05,0.0,0 STARLINK-3989,1 52630U 22052AJ  23089.31540034  .00001919  00000-0  13864-3 0  9994,2 52630  53.2181  56.6556 0001633 115.4263 244.6898 15.08845380 48641,6917.864,95.437,540.859,538.599,0.0
52630.0,STARLINK-3989,PAYLOAD,2023-04-01 04:04:58,15.08839553,0.0001279,53.2169,48.3373,97.2073,262.9064,0.00010736,1.421e-05,0.0,0 STARLINK-3989,1 52630U 22052AJ  23091.17012676  .00001421  00000-0  10736-3 0  9990,2 52630  53.2169  48.3373 0001279  97.2073 262.9064 15.08839553 49301,6917.882,95.438,540.632,538.862,0.0
52630.0,STARLINK-3989,PAYLOAD,2023-04-01 07:15:44,15.0884583,0.0001176,53.2164,47.7391,96.8325,263.2801,0.00018867,2.717e-05,0.0,0 STARLINK-3989,1 52630U 22052AJ  23091.30260348  .00002717  00000-0  18867-3 0  9998,2 52630  53.2164  47.7391 0001176  96.8325 263.2801 15.08845830 48947,6917.863,95.437,540.541,538.914,0.0
52630.0,STARLINK-3989,PAYLOAD,2023-04-02 05:31:09,15.08844024,0.0001188,53.2156,43.5762,98.4945,261.6181,5.1045e-05,5.25e-06,0.0,0 STARLINK-3989,1 52630U 22052AJ  23092.22996550  .00000525  00000-0  51045-4 0  9992,2 52630  53.2156  43.5762 0001188  98.4945 261.6181 15.08844024 49468,6917.868,95.437,540.555,538.911,0.0
52630.0,STARLINK-3989,PAYLOAD,2023-04-03 03:46:33,15.08843024,0.000138,53.2169,39.4132,86.356,273.759,0.00012418,1.689e-05,0.0,0 STARLINK-3989,1 52630U 22052AJ  23093.15733057  .00001689  00000-0  12418-3 0  9998,2 52630  53.2169  39.4132 0001380  86.3560 273.7590 15.08843024 49603,6917.871,95.437,540.691,538.781,0.0
52630.0,STARLINK-3989,PAYLOAD,2023-04-03 05:21:56,15.08847516,0.0001423,53.2172,39.1158,89.307,270.8085,0.00017319,2.47e-05,0.0,0 STARLINK-3989,1 52630U 22052AJ  23093.22356792  .00002470  00000-0  17319-3 0  9997,2 52630  53.2172  39.1158 0001423  89.3070 270.8085 15.08847516 49235,6917.857,95.437,540.707,538.738,0.0
52630.0,STARLINK-3989,PAYLOAD,2023-04-04 06:48:06,15.0884454,0.0001373,53.2168,34.3575,97.3541,262.7608,5.873e-05,6.47e-06,0.0,0 STARLINK-3989,1 52630U 22052AJ  23094.28340953  .00000647  00000-0  58730-4 0  9993,2 52630  53.2168  34.3575 0001373  97.3541 262.7608 15.08844540 49770,6917.867,95.437,540.681,538.782,0.0
52630.0,STARLINK-3989,PAYLOAD,2023-04-05 01:52:45,15.08837086,0.0001555,53.2181,30.7882,107.3837,252.7325,-5.2271e-05,-1.12e-05,0.0,0 STARLINK-3989,1 52630U 22052AJ  23095.07830139 -.00001120  00000-0 -52271-4 0  9994,2 52630  53.2181  30.7882 0001555 107.3837 252.7325 15.08837086 49893,6917.889,95.438,540.83,538.679,0.0
52630.0,STARLINK-3989,PAYLOAD,2023-04-05 05:03:30,15.08843473,0.0001471,53.2192,30.1918,110.0661,250.0489,4.2629e-06,-2.2e-06,0.0,0 STARLINK-3989,1 52630U 22052AJ  23095.21077478 -.00000220  00000-0  42629-5 0  9995,2 52630  53.2192  30.1918 0001471 110.0661 250.0489 15.08843473 49914,6917.87,95.437,540.752,538.717,0.0
52630.0,STARLINK-3989,PAYLOAD,2023-04-06 04:54:17,15.08849333,0.0001386,53.2177,25.7335,99.8816,260.2332,0.00013216,1.817e-05,0.0,0 STARLINK-3989,1 52630U 22052AJ  23096.20436746  .00001817  00000-0  13216-3 0  9992,2 52630  53.2177  25.7335 0001386  99.8816 260.2332 15.08849333 49686,6917.852,95.437,540.676,538.758,0.0
52630.0,STARLINK-3989,PAYLOAD,2023-04-07 01:34:18,15.08842878,0.0001172,53.2179,21.8686,103.1217,256.9906,3.8906e-05,3.31e-06,0.0,0 STARLINK-3989,1 52630U 22052AJ  23097.06549363  .00000331  00000-0  38906-4 0  9991,2 52630  53.2179  21.8686 0001172 103.1217 256.9906 15.08842878 50195,6917.872,95.437,540.547,538.926,0.0
52630.0,STARLINK-3989,PAYLOAD,2023-04-07 04:45:04,15.08846448,0.0001285,53.2183,21.2727,106.329,253.7843,7.2473e-05,8.66e-06,0.0,0 STARLINK-3989,1 52630U 22052AJ  23097.19797022  .00000866  00000-0  72473-4 0  9992,2 52630  53.2183  21.2727 0001285 106.3290 253.7843 15.08846448 49832,6917.861,95.437,540.615,538.837,0.0
52630.0,STARLINK-3989,PAYLOAD,2023-04-08 03:00:28,15.08851369,0.0001162,53.218,17.1133,88.8116,271.3009,-4.8778e-05,-1.064e-05,0.0,0 STARLINK-3989,1 52630U 22052AJ  23098.12532944 -.00001064  00000-0 -48778-4 0  9990,2 52630  53.2180  17.1133 0001162  88.8116 271.3009 15.08851369 50356,6917.846,95.437,540.514,538.907,0.0
52630.0,STARLINK-3989,PAYLOAD,2023-04-08 18:54:20,15.08837195,0.0001164,53.2185,14.1404,99.1139,260.9985,1.9371e-05,2e-07,0.0,0 STARLINK-3989,1 52630U 22052AJ  23098.78773870  .00000020  00000-0  19371-4 0  9993,2 52630  53.2185  14.1404 0001164  99.1139 260.9985 15.08837195 50450,6917.889,95.438,540.559,538.949,0.0
52630.0,STARLINK-3989,PAYLOAD,2023-04-09 02:51:15,15.08846988,0.0001039,53.2178,12.6528,99.0543,261.0567,3.0216e-05,1.93e-06,0.0,0 STARLINK-3989,1 52630U 22052AJ  23099.11893166  .00000193  00000-0  30216-4 0  9994,2 52630  53.2178  12.6528 0001039  99.0543 261.0567 15.08846988 50505,6917.859,95.437,540.443,539.005,0.0
52630.0,STARLINK-3989,PAYLOAD,2023-04-10 02:42:02,15.08844724,0.0001145,53.2194,8.1922,92.0581,268.0542,0.0001219,1.653e-05,0.0,0 STARLINK-3989,1 52630U 22052AJ  23100.11253472  .00001653  00000-0  12190-3 0  9999,2 52630  53.2194   8.1922 0001145  92.0581 268.0542 15.08844724 50656,6917.866,95.437,540.523,538.939,0.0
52630.0,STARLINK-3989,PAYLOAD,2023-04-11 02:32:49,15.08846924,0.0001088,53.2187,3.732,98.9646,261.147,0.00013012,1.784e-05,0.0,0 STARLINK-3989,1 52630U 22052AJ  23101.10613191  .00001784  00000-0  13012-3 0  9996,2 52630  53.2187   3.7320 0001088  98.9646 261.1470 15.08846924 50427,6917.859,95.437,540.477,538.972,0.0
52630.0,STARLINK-3989,PAYLOAD,2023-04-11 16:51:18,15.08833442,0.0001288,53.2184,1.0556,94.4031,265.7108,-0.00011906,-2.182e-05,0.0,0 STARLINK-3989,1 52630U 22052AJ  23101.70230127 -.00002182  00000-0 -11906-3 0  9991,2 52630  53.2184   1.0556 0001288  94.4031 265.7108 15.08833442 50897,6917.9,95.438,540.656,538.874,0.0
52630.0,STARLINK-3989,PAYLOAD,2023-04-11 21:37:28,15.08833699,0.0001013,53.2174,0.1627,109.0852,251.025,-0.00013237,-2.393e-05,0.0,0 STARLINK-3989,1 52630U 22052AJ  23101.90102023 -.00002393  00000-0 -13237-3 0  9999,2 52630  53.2174   0.1627 0001013 109.0852 251.0250 15.08833699 50547,6917.9,95.438,540.465,539.064,0.0
52630.0,STARLINK-3989,PAYLOAD,2023-04-12 02:23:37,15.08839038,0.0001076,53.2188,359.2702,103.8821,256.2291,2.6593e-06,-2.45e-06,0.0,0 STARLINK-3989,1 52630U 22052AJ  23102.09974313 -.00000245  00000-0  26593-5 0  9993,2 52630  53.2188 359.2702 0001076 103.8821 256.2291 15.08839038 50579,6917.883,95.438,540.493,539.004,0.0
52630.0,STARLINK-3989,PAYLOAD,2023-04-12 23:03:38,15.08844902,9.88e-05,53.2186,355.4037,112.3278,247.7819,-1.269e-05,-4.9e-06,0.0,0 STARLINK-3989,1 52630U 22052AJ  23102.96086125 -.00000490  00000-0 -12690-4 0  9999,2 52630  53.2186 355.4037 0000988 112.3278 247.7819 15.08844902 51082,6917.865,95.437,540.414,539.047,0.0
52630.0,STARLINK-3989,PAYLOAD,2023-04-14 02:05:11,15.08845524,0.0001003,53.2168,350.3475,110.3994,249.7106,0.00020112,2.915e-05,0.0,0 STARLINK-3989,1 52630U 22052AJ  23104.08694051  .00002915  00000-0  20112-3 0  9996,2 52630  53.2168 350.3475 0001003 110.3994 249.7106 15.08845524 51255,6917.864,95.437,540.422,539.035,0.0
52630.0,STARLINK-3989,PAYLOAD,2023-04-15 01:55:58,15.08842775,0.0001047,53.2173,345.888,103.0493,257.0616,0.00013913,1.927e-05,0.0,0 STARLINK-3989,1 52630U 22052AJ  23105.08054273  .00001927  00000-0  13913-3 0  9996,2 52630  53.2173 345.8880 0001047 103.0493 257.0616 15.08842775 51401,6917.872,95.437,540.461,539.013,0.0
52630.0,STARLINK-3989,PAYLOAD,2023-04-15 22:35:59,15.08844758,6.45e-05,53.2166,342.0252,89.3899,270.7167,-2.6734e-05,-7.13e-06,0.0,0 STARLINK-3989,1 52630U 22052AJ  23105.94165932 -.00000713  00000-0 -26734-4 0  9996,2 52630  53.2166 342.0252 0000645  89.3899 270.7167 15.08844758 51152,6917.866,95.437,540.177,539.285,0.0
52630.0,STARLINK-3989,PAYLOAD,2023-04-16 01:46:45,15.08852628,0.0001013,53.217,341.4285,97.9202,262.1906,0.00013055,1.791e-05,0.0,0 STARLINK-3989,1 52630U 22052AJ  23106.07413571  .00001791  00000-0  13055-3 0  9992,2 52630  53.2170 341.4285 0001013  97.9202 262.1906 15.08852628 51172,6917.842,95.437,540.408,539.006,0.0
52630.0,STARLINK-3989,PAYLOAD,2023-04-16 20:51:23,15.0884007,0.0001166,53.2172,337.8587,98.0401,262.0723,6.5927e-05,7.62e-06,0.0,0 STARLINK-3989,1 52630U 22052AJ  23106.86902448  .00000762  00000-0  65927-4 0  9998,2 52630  53.2172 337.8587 0001166  98.0401 262.0723 15.08840070 51297,6917.88,95.438,540.552,538.939,0.0
52630.0,STARLINK-3989,PAYLOAD,2023-04-17 01:37:32,15.0884659,0.0001003,53.2167,336.9687,90.5817,269.529,0.00010114,1.323e-05,0.0,0 STARLINK-3989,1 52630U 22052AJ  23107.06774129  .00001323  00000-0  10114-3 0  9995,2 52630  53.2167 336.9687 0001003  90.5817 269.5290 15.08846590 51700,6917.86,95.437,540.419,539.031,0.0
52630.0,STARLINK-3989,PAYLOAD,2023-04-17 14:20:38,15.08833838,0.0001273,53.2167,334.589,91.2963,268.8175,3.0184e-05,1.92e-06,0.0,0 STARLINK-3989,1 52630U 22052AJ  23107.59766982  .00000192  00000-0  30184-4 0  9994,2 52630  53.2167 334.5890 0001273  91.2963 268.8175 15.08833838 51401,6917.899,95.438,540.645,538.884,0.0
52630.0,STARLINK-3989,PAYLOAD,2023-04-17 20:42:10,15.0883924,0.0001285,53.2165,333.4001,99.7742,260.3395,4.8945e-05,4.91e-06,0.0,0 STARLINK-3989,1 52630U 22052AJ  23107.86262620  .00000491  00000-0  48945-4 0  9990,2 52630  53.2165 333.4001 0001285  99.7742 260.3395 15.08839240 51822,6917.883,95.438,540.637,538.859,0.0
